CUTE-1 (CO-55)          
1 27844U 03031E   26196.97918347  .00000131  00000+0  75469-4 0  9993
2 27844  98.6744 205.1765 0010840 100.6537 259.5863 14.24351837195771
CUBESAT XI-IV (CO-57)   
1 27848U 03031J   26196.98211364  .00000105  00000+0  65012-4 0  9997
2 27848  98.6774 204.8688 0010566 117.3488 242.8767 14.23634777195474
CUBESAT XI-V            
1 28895U 05043F   26196.93934947  .00000649  00000+0  10996-3 0  9992
2 28895  98.3016 353.1708 0015281 113.0525 247.2294 14.72703396105987
CUTE-1.7+APD II (CO-65) 
1 32785U 08021C   26196.95007741  .00002610  00000+0  16607-3 0  9994
2 32785  97.8294 178.9751 0006947 296.4052  63.6463 15.09705410989532
CANX-2                  
1 32790U 08021H   26196.93025972  .00001457  00000+0  10494-3 0  9990
2 32790  97.8657 177.2735 0008645 315.3447  44.7082 15.05808719989136
SEEDS II (CO-66)        
1 32791U 08021J   26196.98191950  .00009999  00000+0  30950-3 0  9994
2 32791  97.7522 196.2767 0003155 154.4118 205.7280 15.33682976991702
SWISSCUBE               
1 35932U 09051B   26195.74040393  .00000468  00000+0  10206-3 0  9999
2 35932  98.4008 104.1063 0007823 120.2894 239.9082 14.62530263893188
BEESAT-1                
1 35933U 09051C   26196.31185738  .00000377  00000+0  85523-4 0  9991
2 35933  98.3935 104.2639 0006132 129.5089 230.6654 14.61761931893299
ITUPSAT1                
1 35935U 09051E   26196.19038705  .00000349  00000+0  82054-4 0  9995
2 35935  98.4018 103.3025 0008086 143.1681 217.0076 14.60478742892822
TISAT 1                 
1 36799U 10035E   26196.78600925  .00012652  00000+0  40253-3 0  9996
2 36799  98.0716 145.8980 0004554 118.9066 241.2631 15.32747095872088
STRAND-1                
1 39090U 13009E   26196.74002715  .00000123  00000+0  55624-4 0  9995
2 39090  98.3935  16.2735 0009437 139.6200 220.5689 14.37179078701162
BRITE-AUSTRIA           
1 39091U 13009F   26196.76529549  .00000075  00000+0  39948-4 0  9994
2 39091  98.4008  15.4957 0010793 149.0396 211.1429 14.36552666701154
NEE-01 PEGASO           
1 39151U 13018B   26196.33340642  .00001174  00000+0  11643-3 0  9991
2 39151  98.1256 341.4213 0013693  73.9409 286.3317 14.93789204714902
POPACS 2                
1 39269U 13055E   26196.75443690  .00014540 -92046-6  23703-3 0  9995
2 39269  80.9916 111.4814 0414930 102.0893 262.7124 14.92031396667470
POPACS 3                
1 39270U 13055F   26196.42360878  .00008298  00000+0  19704-3 0  9997
2 39270  80.9990 198.5566 0548749 343.9708  14.4695 14.56665007642662
ZACUBE-1 (TSHEPISOSAT)  
1 39417U 13066B   26196.93443539  .00001227  00000+0  98253-4 0  9996
2 39417  97.8008 159.4128 0044056 152.8424 207.5118 15.01330710685041
WNISAT-1                
1 39423U 13066H   26196.96503795  .00000580  00000+0  11337-3 0  9995
2 39423  97.7236 344.0838 0163918 140.9009 220.4174 14.58120940670926
TRITON-1                
1 39427U 13066M   26196.99568396  .00001539  00000+0  18821-3 0  9990
2 39427  97.8229 106.1451 0090645 139.5081 221.2924 14.81799597678354
GOMX-1                  
1 39430U 13066Q   26196.92019763  .00000712  00000+0  11369-3 0  9998
2 39430  97.6465  35.5696 0128184 345.8791  13.8845 14.69543972674133
CUBEBUG-2 (LO-74)       
1 39440U 13066AA  26196.86496092  .00002083  00000+0  19551-3 0  9990
2 39440  97.8915 145.9709 0055630 293.0759  66.4601 14.93969667681277
NEE-02 KRYSAOR          
1 39441U 13066AB  26196.81366307  .00001150  00000+0  13087-3 0  9993
2 39441  97.8897 135.8273 0065348 337.2484  22.5838 14.86740707680452
FUNCUBE-1 (AO-73)       
1 39444U 13066AE  26196.88912523  .00003677  00000+0  22787-3 0  9993
2 39444  97.8290 168.9436 0037989 105.4335 255.1095 15.09822727683990
UWE-3                   
1 39446U 13066AG  26196.82148462  .00001951  00000+0  17026-3 0  9995
2 39446  97.8715 153.0945 0047549 222.4036 137.3508 14.97201399681861
BRITE-CA1 (TORONTO)     
1 40020U 14033L   26196.84598905  .00000513  00000+0  84679-4 0  9995
2 40020  97.9773 325.2513 0078483 184.1727 175.8836 14.72723276646433
DUCHIFAT-1              
1 40021U 14033M   26196.10651526  .00095423  00000+0  75655-3 0  9991
2 40021  98.0418 259.3300 0002759 247.0602 113.0368 15.70998071660129
NANOSATC-BR1            
1 40024U 14033Q   26196.03158592  .00010322  00000+0  33335-3 0  9995
2 40024  98.0712 230.9033 0005301  95.9115 264.2729 15.32325644658240
QB50P1                  
1 40025U 14033R   26196.94700180  .00004119  00000+0  20221-3 0  9999
2 40025  98.0963 210.1184 0010379 122.3890 237.8348 15.18672539657392
QB50P2                  
1 40032U 14033Y   26196.95650245  .00003941  00000+0  21181-3 0  9992
2 40032  98.0761 195.6369 0009291  81.4745 278.7539 15.15512295657028
PERSEUS-M2              
1 40037U 14033AD  26196.89968473  .00001067  00000+0  10159-3 0  9995
2 40037  97.9983 148.0289 0010873 196.4971 163.5897 14.95593668655077
PERSEUS-M1              
1 40039U 14033AF  26196.40204849  .00001162  00000+0  10973-3 0  9994
2 40039  97.9654 141.0000 0010919 195.4743 164.6145 14.95716338654859
